SENTINEL-1A             
1 39634U 14016A   26201.28181713 -.00000036  00000+0  20393-5 0  9990
2 39634  98.1735 208.3298 0001443  83.7537 276.3827 14.59173554654843
SENTINEL-1C             
1 62261U 24235A   26201.32116750  .00000083  00000+0  27333-4 0  9991
2 62261  98.1824 208.1594 0001392  89.4385 270.6974 14.59198651 86246
SENTINEL-1D             
1 66315U 25251A   26201.01275092 -.00000024  00000+0  45904-5 0  9996
2 66315  98.1830 207.9106 0001375  87.8710 272.2647 14.59197470 37517
