{"fetched_at":"2026-07-20T18:29:43.706Z","source":"https://celestrak.org/NORAD/elements/gp.php?NAME=SENTINEL&FORMAT=JSON","constellation":"sentinel-1","records":[{"OBJECT_NAME":"SENTINEL-1A","OBJECT_ID":"2014-016A","EPOCH":"2026-07-20T06:45:49.000032","CLASSIFICATION_TYPE":"U","MEAN_MOTION":14.59173554,"ECCENTRICITY":0.00014438,"INCLINATION":98.1735,"RA_OF_ASC_NODE":208.3298,"ARG_OF_PERICENTER":83.7537,"MEAN_ANOMALY":276.3827,"EPHEMERIS_TYPE":0,"NORAD_CAT_ID":39634,"ELEMENT_SET_NO":999,"REV_AT_EPOCH":65484,"BSTAR":0.000002039259,"MEAN_MOTION_DOT":-3.6e-7,"MEAN_MOTION_DDOT":0},{"OBJECT_NAME":"SENTINEL-1C","OBJECT_ID":"2024-235A","EPOCH":"2026-07-20T07:42:28.872000","CLASSIFICATION_TYPE":"U","MEAN_MOTION":14.59198651,"ECCENTRICITY":0.00013922,"INCLINATION":98.1824,"RA_OF_ASC_NODE":208.1594,"ARG_OF_PERICENTER":89.4385,"MEAN_ANOMALY":270.6974,"EPHEMERIS_TYPE":0,"NORAD_CAT_ID":62261,"ELEMENT_SET_NO":999,"REV_AT_EPOCH":8624,"BSTAR":0.000027333356,"MEAN_MOTION_DOT":8.3e-7,"MEAN_MOTION_DDOT":0},{"OBJECT_NAME":"SENTINEL-1D","OBJECT_ID":"2025-251A","EPOCH":"2026-07-20T00:18:21.679488","CLASSIFICATION_TYPE":"U","MEAN_MOTION":14.5919747,"ECCENTRICITY":0.0001375,"INCLINATION":98.183,"RA_OF_ASC_NODE":207.9106,"ARG_OF_PERICENTER":87.871,"MEAN_ANOMALY":272.2647,"EPHEMERIS_TYPE":0,"NORAD_CAT_ID":66315,"ELEMENT_SET_NO":999,"REV_AT_EPOCH":3751,"BSTAR":0.000004590385,"MEAN_MOTION_DOT":-2.4e-7,"MEAN_MOTION_DDOT":0}]}
